{"fetched_at":"2026-07-23T07:05:49.969Z","source":"https://celestrak.org/NORAD/elements/gp.php?NAME=KINEIS&FORMAT=JSON","constellation":"kineis","records":[{"OBJECT_NAME":"KINEIS-1B","OBJECT_ID":"2024-114A","EPOCH":"2026-07-23T00:05:42.441216","CLASSIFICATION_TYPE":"U","MEAN_MOTION":14.80675978,"ECCENTRICITY":0.00023487,"INCLINATION":97.9828,"RA_OF_ASC_NODE":228.0184,"ARG_OF_PERICENTER":19.6106,"MEAN_ANOMALY":340.5196,"EPHEMERIS_TYPE":0,"NORAD_CAT_ID":60079,"ELEMENT_SET_NO":999,"REV_AT_EPOCH":11270,"BSTAR":0.00010529576,"MEAN_MOTION_DOT":0.00000757,"MEAN_MOTION_DDOT":0},{"OBJECT_NAME":"KINEIS-1C","OBJECT_ID":"2024-114C","EPOCH":"2026-07-22T21:39:30.299328","CLASSIFICATION_TYPE":"U","MEAN_MOTION":14.80676983,"ECCENTRICITY":0.00025392,"INCLINATION":97.9843,"RA_OF_ASC_NODE":227.7745,"ARG_OF_PERICENTER":85.0385,"MEAN_ANOMALY":275.1117,"EPHEMERIS_TYPE":0,"NORAD_CAT_ID":60081,"ELEMENT_SET_NO":999,"REV_AT_EPOCH":11266,"BSTAR":0.000088813797,"MEAN_MOTION_DOT":0.0000063,"MEAN_MOTION_DDOT":0},{"OBJECT_NAME":"KINEIS-1D","OBJECT_ID":"2024-114D","EPOCH":"2026-07-22T21:32:10.608864","CLASSIFICATION_TYPE":"U","MEAN_MOTION":14.76369623,"ECCENTRICITY":0.00029611,"INCLINATION":97.988,"RA_OF_ASC_NODE":223.6442,"ARG_OF_PERICENTER":86.6251,"MEAN_ANOMALY":273.5298,"EPHEMERIS_TYPE":0,"NORAD_CAT_ID":60082,"ELEMENT_SET_NO":999,"REV_AT_EPOCH":11239,"BSTAR":0.000082571073,"MEAN_MOTION_DOT":0.00000522,"MEAN_MOTION_DDOT":0},{"OBJECT_NAME":"KINEIS-1E","OBJECT_ID":"2024-114E","EPOCH":"2026-07-22T23:42:18.150048","CLASSIFICATION_TYPE":"U","MEAN_MOTION":14.80704396,"ECCENTRICITY":0.00042307,"INCLINATION":97.8946,"RA_OF_ASC_NODE":226.8424,"ARG_OF_PERICENTER":93.8068,"MEAN_ANOMALY":266.3628,"EPHEMERIS_TYPE":0,"NORAD_CAT_ID":60083,"ELEMENT_SET_NO":999,"REV_AT_EPOCH":11268,"BSTAR":0.00011912815,"MEAN_MOTION_DOT":0.00000864,"MEAN_MOTION_DDOT":0},{"OBJECT_NAME":"KINEIS-1A","OBJECT_ID":"2024-114F","EPOCH":"2026-07-22T22:53:14.052768","CLASSIFICATION_TYPE":"U","MEAN_MOTION":14.80691624,"ECCENTRICITY":0.00049452,"INCLINATION":97.8919,"RA_OF_ASC_NODE":226.8998,"ARG_OF_PERICENTER":43.1513,"MEAN_ANOMALY":317.0086,"EPHEMERIS_TYPE":0,"NORAD_CAT_ID":60084,"ELEMENT_SET_NO":999,"REV_AT_EPOCH":11268,"BSTAR":0.00011129172,"MEAN_MOTION_DOT":0.00000804,"MEAN_MOTION_DDOT":0},{"OBJECT_NAME":"KINEIS-3C","OBJECT_ID":"2024-172A","EPOCH":"2026-07-22T16:25:39.876384","CLASSIFICATION_TYPE":"U","MEAN_MOTION":14.72307358,"ECCENTRICITY":0.00024069,"INCLINATION":98.0431,"RA_OF_ASC_NODE":293.207,"ARG_OF_PERICENTER":70.6709,"MEAN_ANOMALY":289.4758,"EPHEMERIS_TYPE":0,"NORAD_CAT_ID":61220,"ELEMENT_SET_NO":999,"REV_AT_EPOCH":9829,"BSTAR":0.00022485497,"MEAN_MOTION_DOT":0.00001372,"MEAN_MOTION_DDOT":0},{"OBJECT_NAME":"KINEIS-3D","OBJECT_ID":"2024-172B","EPOCH":"2026-07-22T11:22:24.190176","CLASSIFICATION_TYPE":"U","MEAN_MOTION":14.72302883,"ECCENTRICITY":0.00023523,"INCLINATION":98.0429,"RA_OF_ASC_NODE":293.0096,"ARG_OF_PERICENTER":67.2266,"MEAN_ANOMALY":292.919,"EPHEMERIS_TYPE":0,"NORAD_CAT_ID":61221,"ELEMENT_SET_NO":999,"REV_AT_EPOCH":9854,"BSTAR":0.00014472637,"MEAN_MOTION_DOT":0.00000865,"MEAN_MOTION_DDOT":0},{"OBJECT_NAME":"KINEIS-3E","OBJECT_ID":"2024-172C","EPOCH":"2026-07-22T17:29:20.391936","CLASSIFICATION_TYPE":"U","MEAN_MOTION":14.72293687,"ECCENTRICITY":0.00016201,"INCLINATION":98.0425,"RA_OF_ASC_NODE":293.2415,"ARG_OF_PERICENTER":84.5272,"MEAN_ANOMALY":275.612,"EPHEMERIS_TYPE":0,"NORAD_CAT_ID":61222,"ELEMENT_SET_NO":999,"REV_AT_EPOCH":9858,"BSTAR":0.00021727876,"MEAN_MOTION_DOT":0.00001323,"MEAN_MOTION_DDOT":0},{"OBJECT_NAME":"KINEIS-3A","OBJECT_ID":"2024-172D","EPOCH":"2026-07-22T17:05:15.672480","CLASSIFICATION_TYPE":"U","MEAN_MOTION":14.72327015,"ECCENTRICITY":0.00016229,"INCLINATION":98.0422,"RA_OF_ASC_NODE":293.3232,"ARG_OF_PERICENTER":25.2134,"MEAN_ANOMALY":334.9152,"EPHEMERIS_TYPE":0,"NORAD_CAT_ID":61223,"ELEMENT_SET_NO":999,"REV_AT_EPOCH":9800,"BSTAR":0.00021863837,"MEAN_MOTION_DOT":0.00001333,"MEAN_MOTION_DDOT":0},{"OBJECT_NAME":"KINEIS-3B","OBJECT_ID":"2024-172E","EPOCH":"2026-07-22T16:40:20.713152","CLASSIFICATION_TYPE":"U","MEAN_MOTION":14.72313143,"ECCENTRICITY":0.00010261,"INCLINATION":98.0417,"RA_OF_ASC_NODE":293.3277,"ARG_OF_PERICENTER":7.5203,"MEAN_ANOMALY":352.6019,"EPHEMERIS_TYPE":0,"NORAD_CAT_ID":61224,"ELEMENT_SET_NO":999,"REV_AT_EPOCH":9857,"BSTAR":0.00021815895,"MEAN_MOTION_DOT":0.00001329,"MEAN_MOTION_DDOT":0},{"OBJECT_NAME":"KINEIS-5C","OBJECT_ID":"2024-219A","EPOCH":"2026-07-22T22:38:54.324384","CLASSIFICATION_TYPE":"U","MEAN_MOTION":14.72322211,"ECCENTRICITY":0.00047407,"INCLINATION":97.9076,"RA_OF_ASC_NODE":1.8097,"ARG_OF_PERICENTER":151.5382,"MEAN_ANOMALY":208.6085,"EPHEMERIS_TYPE":0,"NORAD_CAT_ID":62081,"ELEMENT_SET_NO":999,"REV_AT_EPOCH":8901,"BSTAR":0.00010391677,"MEAN_MOTION_DOT":0.00000609,"MEAN_MOTION_DDOT":0},{"OBJECT_NAME":"KINEIS-5D","OBJECT_ID":"2024-219B","EPOCH":"2026-07-22T21:37:52.038336","CLASSIFICATION_TYPE":"U","MEAN_MOTION":14.72504153,"ECCENTRICITY":0.00058256,"INCLINATION":97.9188,"RA_OF_ASC_NODE":1.849,"ARG_OF_PERICENTER":146.0235,"MEAN_ANOMALY":214.1347,"EPHEMERIS_TYPE":0,"NORAD_CAT_ID":62082,"ELEMENT_SET_NO":999,"REV_AT_EPOCH":8901,"BSTAR":0.00014637195,"MEAN_MOTION_DOT":0.00000881,"MEAN_MOTION_DDOT":0},{"OBJECT_NAME":"KINEIS-5E","OBJECT_ID":"2024-219C","EPOCH":"2026-07-22T23:42:52.866432","CLASSIFICATION_TYPE":"U","MEAN_MOTION":14.72306408,"ECCENTRICITY":0.00073043,"INCLINATION":97.9033,"RA_OF_ASC_NODE":1.9428,"ARG_OF_PERICENTER":142.2542,"MEAN_ANOMALY":217.9179,"EPHEMERIS_TYPE":0,"NORAD_CAT_ID":62083,"ELEMENT_SET_NO":999,"REV_AT_EPOCH":8903,"BSTAR":0.000098798863,"MEAN_MOTION_DOT":0.00000576,"MEAN_MOTION_DDOT":0},{"OBJECT_NAME":"KINEIS-5A","OBJECT_ID":"2024-219D","EPOCH":"2026-07-22T21:33:49.879872","CLASSIFICATION_TYPE":"U","MEAN_MOTION":14.72293191,"ECCENTRICITY":0.00043996,"INCLINATION":97.8974,"RA_OF_ASC_NODE":2.1298,"ARG_OF_PERICENTER":174.8871,"MEAN_ANOMALY":185.2383,"EPHEMERIS_TYPE":0,"NORAD_CAT_ID":62084,"ELEMENT_SET_NO":999,"REV_AT_EPOCH":8902,"BSTAR":0.00039707794,"MEAN_MOTION_DOT":0.00002461,"MEAN_MOTION_DDOT":0},{"OBJECT_NAME":"KINEIS-5B","OBJECT_ID":"2024-219E","EPOCH":"2026-07-22T22:04:26.031936","CLASSIFICATION_TYPE":"U","MEAN_MOTION":14.78397607,"ECCENTRICITY":0.00029022,"INCLINATION":98.0098,"RA_OF_ASC_NODE":7.554,"ARG_OF_PERICENTER":130.3558,"MEAN_ANOMALY":229.7906,"EPHEMERIS_TYPE":0,"NORAD_CAT_ID":62085,"ELEMENT_SET_NO":999,"REV_AT_EPOCH":8928,"BSTAR":0.00014506839,"MEAN_MOTION_DOT":0.00001004,"MEAN_MOTION_DDOT":0},{"OBJECT_NAME":"KINEIS-2C","OBJECT_ID":"2025-028B","EPOCH":"2026-07-22T13:35:49.084512","CLASSIFICATION_TYPE":"U","MEAN_MOTION":14.73443742,"ECCENTRICITY":0.00047174,"INCLINATION":98.1225,"RA_OF_ASC_NODE":257.9972,"ARG_OF_PERICENTER":140.7821,"MEAN_ANOMALY":219.3729,"EPHEMERIS_TYPE":0,"NORAD_CAT_ID":62929,"ELEMENT_SET_NO":999,"REV_AT_EPOCH":7782,"BSTAR":0.00018162473,"MEAN_MOTION_DOT":0.00001127,"MEAN_MOTION_DDOT":0}]}
