{"epoch":1784799577,"count":18318,"objects":[{"id":"60079","name":"KINEIS-1B","type":"PAYLOAD","l1":"1 60079U 24114A   26204.00396344  .00000757  00000-0  10530-3 0  9998","l2":"2 60079  97.9828 228.0184 0002349  19.6106 340.5196 14.80675978112707"},{"id":"60081","name":"KINEIS-1C","type":"PAYLOAD","l1":"1 60081U 24114C   26203.90243402  .00000630  00000-0  88814-4 0  9996","l2":"2 60081  97.9843 227.7745 0002539  85.0385 275.1117 14.80676983112661"},{"id":"60082","name":"KINEIS-1D","type":"PAYLOAD","l1":"1 60082U 24114D   26203.89734501  .00000522  00000-0  82571-4 0  9994","l2":"2 60082  97.9880 223.6442 0002961  86.6251 273.5298 14.76369623112397"},{"id":"60083","name":"KINEIS-1E","type":"PAYLOAD","l1":"1 60083U 24114E   26203.98771007  .00000864  00000-0  11913-3 0  9997","l2":"2 60083  97.8946 226.8424 0004231  93.8068 266.3628 14.80704396112687"},{"id":"60084","name":"KINEIS-1A","type":"PAYLOAD","l1":"1 60084U 24114F   26203.95363487  .00000804  00000-0  11129-3 0  9997","l2":"2 60084  97.8919 226.8998 0004945  43.1513 317.0086 14.80691624112680"},{"id":"61220","name":"KINEIS-3C","type":"PAYLOAD","l1":"1 61220U 24172A   26203.68448931  .00001372  00000-0  22485-3 0  9990","l2":"2 61220  98.0431 293.2070 0002407  70.6709 289.4758 14.72307358 98294"},{"id":"61221","name":"KINEIS-3D","type":"PAYLOAD","l1":"1 61221U 24172B   26203.47389109  .00000865  00000-0  14473-3 0  9993","l2":"2 61221  98.0429 293.0096 0002352  67.2266 292.9190 14.72302883 98542"},{"id":"61222","name":"KINEIS-3E","type":"PAYLOAD","l1":"1 61222U 24172C   26203.72870824  .00001323  00000-0  21728-3 0  9992","l2":"2 61222  98.0425 293.2415 0001620  84.5272 275.6120 14.72293687 98588"},{"id":"61223","name":"KINEIS-3A","type":"PAYLOAD","l1":"1 61223U 24172D   26203.71198695  .00001333  00000-0  21864-3 0  9993","l2":"2 61223  98.0422 293.3232 0001623  25.2134 334.9152 14.72327015 98000"},{"id":"61224","name":"KINEIS-3B","type":"PAYLOAD","l1":"1 61224U 24172E   26203.69468418  .00001329  00000-0  21816-3 0  9996","l2":"2 61224  98.0417 293.3277 0001026   7.5203 352.6019 14.72313143 98579"},{"id":"62081","name":"KINEIS-5C","type":"PAYLOAD","l1":"1 62081U 24219A   26203.94368431  .00000609  00000-0  10392-3 0  9999","l2":"2 62081  97.9076   1.8097 0004741 151.5382 208.6085 14.72322211 89015"},{"id":"62082","name":"KINEIS-5D","type":"PAYLOAD","l1":"1 62082U 24219B   26203.90129674  .00000881  00000-0  14637-3 0  9998","l2":"2 62082  97.9188   1.8490 0005826 146.0235 214.1347 14.72504153 89018"},{"id":"62083","name":"KINEIS-5E","type":"PAYLOAD","l1":"1 62083U 24219C   26203.98811188  .00000576  00000-0  98799-4 0  9998","l2":"2 62083  97.9033   1.9428 0007304 142.2542 217.9179 14.72306408 89031"},{"id":"62084","name":"KINEIS-5A","type":"PAYLOAD","l1":"1 62084U 24219D   26203.89849398  .00002461  00000-0  39708-3 0  9992","l2":"2 62084  97.8974   2.1298 0004400 174.8871 185.2383 14.72293191 89020"},{"id":"62085","name":"KINEIS-5B","type":"PAYLOAD","l1":"1 62085U 24219E   26203.91974574  .00001004  00000-0  14507-3 0  9993","l2":"2 62085  98.0098   7.5540 0002902 130.3558 229.7906 14.78397607 89280"},{"id":"62929","name":"KINEIS-2C","type":"PAYLOAD","l1":"1 62929U 25028B   26203.56654033  .00001127  00000-0  18162-3 0  9992","l2":"2 62929  98.1225 257.9972 0004717 140.7821 219.3729 14.73443742 77826"}]}